ONEWEB-0027             
1 45432U 20020J   23296.19537620 -.00000039  00000+0 -13483-3 0  9992
2 45432  87.9249 198.2430 0001515  79.4068 280.7234 13.17651149178888
ONEWEB-0064             
1 45433U 20020K   23295.82666458  .00000211  00000+0  55884-3 0  9995
2 45433  87.8997 213.4488 0001520  71.9890 288.1403 13.11421962175774
ONEWEB-0018             
1 45434U 20020L   23295.85912141  .00000149  00000+0  38429-3 0  9998
2 45434  87.9002 213.4327 0001966  70.5901 289.5439 13.11415594175720
ONEWEB-0083             
1 45435U 20020M   23295.84776440  .00000627  00000+0  17320-2 0  9995
2 45435  87.8995 213.4193 0001757  81.5884 278.5443 13.11415433175761
ONEWEB-0095             
1 45436U 20020N   23295.83974476  .00001140  00000+0  31819-2 0  9994
2 45436  87.9007 213.4567 0001549  84.3633 275.7672 13.11385453175765
ONEWEB-0092             
1 45437U 20020P   23296.18866441 -.00000107  00000+0 -33770-3 0  9999
2 45437  87.9002 213.3652 0002121  87.1194 273.0177 13.11413455175917
ONEWEB-0085             
1 45438U 20020Q   23295.84127365  .00000590  00000+0  16297-2 0  9995
2 45438  87.8997 213.4431 0001839  68.2339 291.8984 13.11418986175763
ONEWEB-0096             
1 45439U 20020R   23295.84940901  .00000504  00000+0  13856-2 0  9998
2 45439  87.8991 213.4154 0002064  68.4986 291.6361 13.11417858175754
